[{"OBJECT_NAME":"STARLINK-5729","OBJECT_ID":"2023-020AD","EPOCH":"2026-03-09T22:00:01.999584","MEAN_MOTION":15.10104174,"ECCENTRICITY":9.821e-5,"INCLINATION":42.9997,"RA_OF_ASC_NODE":2.8491,"ARG_OF_PERICENTER":242.2129,"MEAN_ANOMALY":346.1294,"EPHEMERIS_TYPE":0,"CLASSIFICATION_TYPE":"U","NORAD_CAT_ID":55596,"ELEMENT_SET_NO":999,"REV_AT_EPOCH":577,"BSTAR":0.073258172,"MEAN_MOTION_DOT":0.01319331,"MEAN_MOTION_DDOT":0},{"OBJECT_NAME":"OBJECT P","OBJECT_ID":"2025-313P","EPOCH":"2026-03-09T21:52:10.906176","MEAN_MOTION":15.22867124,"ECCENTRICITY":0.00138824,"INCLINATION":97.4038,"RA_OF_ASC_NODE":145.2697,"ARG_OF_PERICENTER":354.5628,"MEAN_ANOMALY":5.5456,"EPHEMERIS_TYPE":0,"CLASSIFICATION_TYPE":"U","NORAD_CAT_ID":67261,"ELEMENT_SET_NO":999,"REV_AT_EPOCH":1085,"BSTAR":0.00092209844,"MEAN_MOTION_DOT":0.00021628,"MEAN_MOTION_DDOT":0}]
